{
  "norad_id": 58801,
  "name": "STARLINK-31170",
  "history": [
    {
      "epoch": "2026-03-28T15:22:46.125696",
      "apogee_km": 484.0508943712248,
      "perigee_km": 482.06389247489096,
      "latitude_deg": -32.42639223083261,
      "longitude_deg": 121.61791744013317,
      "semi_major_axis_km": 6861.194393423058,
      "eccentricity": 0.0001448,
      "inclination_deg": 43.0084,
      "raan_deg": 58.2751,
      "arg_perigee_deg": 278.0613,
      "mean_anomaly_deg": 82.0074,
      "mean_motion_rev_day": 15.27577229
    }
  ]
}