{"fetched_at":"2026-03-29T16:36:15Z","count":15609,"tles":[{"name":"STARLINK-31170","line1":"1 58801U 24012Q   26087.64081164 -.00000670  00000+0 -14808-4 0  9993","line2":"2 58801  43.0084  58.2751 0001448 278.0613  82.0074 15.27577229124134","category":"Starlink"}]}